{
  "type": "FeatureCollection",
  "features": [
    {
      "type": "Feature",
      "properties": {
        "norad_id": 28054,
        "name": "DMSP 5D-3 F16 (USA 172)",
        "group": "weather",
        "lat": 25.181039180904513,
        "lon": -164.3487537971795,
        "alt_km": 847.1222488391368,
        "timestamp": "2025-12-19T20:42:59.723362+00:00",
        "meta_object_name": "DMSP 5D-3 F16 (USA 172)",
        "meta_object_id": "2003-048A",
        "meta_epoch": "2025-12-19T06:41:41.769888",
        "meta_mean_motion": 14.14426491,
        "meta_eccentricity": 0.00063196,
        "meta_inclination": 99.004,
        "meta_ra_of_asc_node": 10.7873,
        "meta_arg_of_pericenter": 300.1121,
        "meta_mean_anomaly": 121.0741,
        "meta_ephemeris_type": 0,
        "meta_classification_type": "U",
        "meta_norad_cat_id": 28054,
        "meta_element_set_no": 999,
        "meta_rev_at_epoch": 14405,
        "meta_bstar": 7.0732521e-05,
        "meta_mean_motion_dot": 9e-07,
        "meta_mean_motion_ddot": 0,
        "tle_line1": "1 28054U 03048A   25353.27895567  .00000090  00000+0  70733-4 0  9993",
        "tle_line2": "2 28054  99.0040  10.7873 0006319 300.1121 121.0741 14.14426491144052"
      },
      "geometry": {
        "type": "Point",
        "coordinates": [
          -164.3487537971795,
          25.181039180904513
        ]
      }
    },
    {
      "type": "Feature",
      "properties": {
        "norad_id": 28912,
        "name": "METEOSAT-9 (MSG-2)",
        "group": "weather",
        "lat": 4.399742333921524,
        "lon": 84.9746557634671,
        "alt_km": 35796.76338248357,
        "timestamp": "2025-12-19T20:42:59.723411+00:00",
        "meta_object_name": "METEOSAT-9 (MSG-2)",
        "meta_object_id": "2005-049B",
        "meta_epoch": "2025-12-17T18:40:44.289696",
        "meta_mean_motion": 1.00279199,
        "meta_eccentricity": 0.00033756,
        "meta_inclination": 8.9502,
        "meta_ra_of_asc_node": 55.9296,
        "meta_arg_of_pericenter": 190.8164,
        "meta_mean_anomaly": 165.8697,
        "meta_ephemeris_type": 0,
        "meta_classification_type": "U",
        "meta_norad_cat_id": 28912,
        "meta_element_set_no": 999,
        "meta_rev_at_epoch": 517,
        "meta_bstar": 0,
        "meta_mean_motion_dot": 1.4e-06,
        "meta_mean_motion_ddot": 0,
        "tle_line1": "1 28912U 05049B   25351.77829039  .00000140  00000+0  00000+0 0  9994",
        "tle_line2": "2 28912   8.9502  55.9296 0003375 190.8164 165.8697  1.00279199  5174"
      },
      "geometry": {
        "type": "Point",
        "coordinates": [
          84.9746557634671,
          4.399742333921524
        ]
      }
    },
    {
      "type": "Feature",
      "properties": {
        "norad_id": 29522,
        "name": "DMSP 5D-3 F17 (USA 191)",
        "group": "weather",
        "lat": 70.71562842274648,
        "lon": -154.8168829617046,
        "alt_km": 836.4565121768228,
        "timestamp": "2025-12-19T20:42:59.723429+00:00",
        "meta_object_name": "DMSP 5D-3 F17 (USA 191)",
        "meta_object_id": "2006-050A",
        "meta_epoch": "2025-12-19T06:38:01.171680",
        "meta_mean_motion": 14.14922348,
        "meta_eccentricity": 0.00096637,
        "meta_inclination": 98.739,
        "meta_ra_of_asc_node": 358.5294,
        "meta_arg_of_pericenter": 205.1108,
        "meta_mean_anomaly": 154.9597,
        "meta_ephemeris_type": 0,
        "meta_classification_type": "U",
        "meta_norad_cat_id": 29522,
        "meta_element_set_no": 999,
        "meta_rev_at_epoch": 98697,
        "meta_bstar": 9.4082092e-05,
        "meta_mean_motion_dot": 1.39e-06,
        "meta_mean_motion_ddot": 0,
        "tle_line1": "1 29522U 06050A   25353.27640245  .00000139  00000+0  94082-4 0  9998",
        "tle_line2": "2 29522  98.7390 358.5294 0009663 205.1108 154.9597 14.14922348986972"
      },
      "geometry": {
        "type": "Point",
        "coordinates": [
          -154.8168829617046,
          70.71562842274648
        ]
      }
    },
    {
      "type": "Feature",
      "properties": {
        "norad_id": 32958,
        "name": "FENGYUN 3A",
        "group": "weather",
        "lat": -59.900156067527405,
        "lon": -51.49827546618497,
        "alt_km": 828.6456227142198,
        "timestamp": "2025-12-19T20:42:59.723443+00:00",
        "meta_object_name": "FENGYUN 3A",
        "meta_object_id": "2008-026A",
        "meta_epoch": "2025-12-18T19:37:42.374784",
        "meta_mean_motion": 14.19516502,
        "meta_eccentricity": 0.00077003,
        "meta_inclination": 98.6703,
        "meta_ra_of_asc_node": 292.2167,
        "meta_arg_of_pericenter": 291.0603,
        "meta_mean_anomaly": 68.975,
        "meta_ephemeris_type": 0,
        "meta_classification_type": "U",
        "meta_norad_cat_id": 32958,
        "meta_element_set_no": 999,
        "meta_rev_at_epoch": 90981,
        "meta_bstar": 5.5044233e-05,
        "meta_mean_motion_dot": 7.3e-07,
        "meta_mean_motion_ddot": 0,
        "tle_line1": "1 32958U 08026A   25352.81785156  .00000073  00000+0  55044-4 0  9992",
        "tle_line2": "2 32958  98.6703 292.2167 0007700 291.0603  68.9750 14.19516502909812"
      },
      "geometry": {
        "type": "Point",
        "coordinates": [
          -51.49827546618497,
          -59.900156067527405
        ]
      }
    },
    {
      "type": "Feature",
      "properties": {
        "norad_id": 35491,
        "name": "GOES 14",
        "group": "weather",
        "lat": -0.441033927545366,
        "lon": -74.80644024476258,
        "alt_km": 35833.19889368962,
        "timestamp": "2025-12-19T20:42:59.723458+00:00",
        "meta_object_name": "GOES 14",
        "meta_object_id": "2009-033A",
        "meta_epoch": "2025-12-19T05:52:24.244320",
        "meta_mean_motion": 1.00096818,
        "meta_eccentricity": 5.145e-05,
        "meta_inclination": 1.2197,
        "meta_ra_of_asc_node": 85.3408,
        "meta_arg_of_pericenter": 179.4903,
        "meta_mean_anomaly": 157.5047,
        "meta_ephemeris_type": 0,
        "meta_classification_type": "U",
        "meta_norad_cat_id": 35491,
        "meta_element_set_no": 999,
        "meta_rev_at_epoch": 478,
        "meta_bstar": 0,
        "meta_mean_motion_dot": 1.7e-07,
        "meta_mean_motion_ddot": 0,
        "tle_line1": "1 35491U 09033A   25353.24472505  .00000017  00000+0  00000+0 0  9990",
        "tle_line2": "2 35491   1.2197  85.3408 0000514 179.4903 157.5047  1.00096818  4786"
      },
      "geometry": {
        "type": "Point",
        "coordinates": [
          -74.80644024476258,
          -0.441033927545366
        ]
      }
    },
    {
      "type": "Feature",
      "properties": {
        "norad_id": 35951,
        "name": "DMSP 5D-3 F18 (USA 210)",
        "group": "weather",
        "lat": -28.863948633964895,
        "lon": -24.825702789744522,
        "alt_km": 846.361227865752,
        "timestamp": "2025-12-19T20:42:59.723472+00:00",
        "meta_object_name": "DMSP 5D-3 F18 (USA 210)",
        "meta_object_id": "2009-057A",
        "meta_epoch": "2025-12-19T03:52:51.852864",
        "meta_mean_motion": 14.14773377,
        "meta_eccentricity": 0.00119208,
        "meta_inclination": 98.884,
        "meta_ra_of_asc_node": 329.5305,
        "meta_arg_of_pericenter": 45.8595,
        "meta_mean_anomaly": 314.3556,
        "meta_ephemeris_type": 0,
        "meta_classification_type": "U",
        "meta_norad_cat_id": 35951,
        "meta_element_set_no": 999,
        "meta_rev_at_epoch": 83413,
        "meta_bstar": 0.00013845182,
        "meta_mean_motion_dot": 2.23e-06,
        "meta_mean_motion_ddot": 0,
        "tle_line1": "1 35951U 09057A   25353.16171126  .00000223  00000+0  13845-3 0  9997",
        "tle_line2": "2 35951  98.8840 329.5305 0011920  45.8595 314.3556 14.14773377834138"
      },
      "geometry": {
        "type": "Point",
        "coordinates": [
          -24.825702789744522,
          -28.863948633964895
        ]
      }
    },
    {
      "type": "Feature",
      "properties": {
        "norad_id": 36411,
        "name": "EWS-G2 (GOES 15)",
        "group": "weather",
        "lat": 0.23755919669104347,
        "lon": 100.7918989392441,
        "alt_km": 35808.3789928967,
        "timestamp": "2025-12-19T20:42:59.723486+00:00",
        "meta_object_name": "EWS-G2 (GOES 15)",
        "meta_object_id": "2010-008A",
        "meta_epoch": "2025-12-19T04:59:44.289600",
        "meta_mean_motion": 1.00270809,
        "meta_eccentricity": 0.00054673,
        "meta_inclination": 0.8289,
        "meta_ra_of_asc_node": 86.0854,
        "meta_arg_of_pericenter": 177.1283,
        "meta_mean_anomaly": 321.1501,
        "meta_ephemeris_type": 0,
        "meta_classification_type": "U",
        "meta_norad_cat_id": 36411,
        "meta_element_set_no": 999,
        "meta_rev_at_epoch": 5783,
        "meta_bstar": 0,
        "meta_mean_motion_dot": 6.2e-07,
        "meta_mean_motion_ddot": 0,
        "tle_line1": "1 36411U 10008A   25353.20815150  .00000062  00000+0  00000+0 0  9990",
        "tle_line2": "2 36411   0.8289  86.0854 0005467 177.1283 321.1501  1.00270809 57839"
      },
      "geometry": {
        "type": "Point",
        "coordinates": [
          100.7918989392441,
          0.23755919669104347
        ]
      }
    }
  ]
}